STARLINK-31598          
1 59263U 24050K   26068.62846355 -.00000080  00000+0  94387-5 0  9991
2 59263  53.1619 181.6524 0001335  82.4699 277.6453 15.30183586110533
TEVEL2-2                
1 63219U 25052K   26068.64848259  .00020339  00000+0  69428-3 0  9991
2 63219  97.3987 324.7700 0004693 105.7930 254.3828 15.30343745 54855
